[{"OBJECT_NAME":"OBJECT B","OBJECT_ID":"2024-205B","EPOCH":"2026-03-09T23:46:05.115936","MEAN_MOTION":15.28158697,"ECCENTRICITY":0.00105957,"INCLINATION":97.4192,"RA_OF_ASC_NODE":146.9311,"ARG_OF_PERICENTER":34.0947,"MEAN_ANOMALY":326.0972,"EPHEMERIS_TYPE":0,"CLASSIFICATION_TYPE":"U","NORAD_CAT_ID":61895,"ELEMENT_SET_NO":999,"REV_AT_EPOCH":7352,"BSTAR":0.00054154807,"MEAN_MOTION_DOT":0.00014827,"MEAN_MOTION_DDOT":0},{"OBJECT_NAME":"STARLINK-35252","OBJECT_ID":"2025-221AD","EPOCH":"2026-03-09T11:15:25.388640","MEAN_MOTION":15.3020143,"ECCENTRICITY":0.00013376,"INCLINATION":53.159,"RA_OF_ASC_NODE":89.7889,"ARG_OF_PERICENTER":73.5171,"MEAN_ANOMALY":286.5976,"EPHEMERIS_TYPE":0,"CLASSIFICATION_TYPE":"U","NORAD_CAT_ID":65850,"ELEMENT_SET_NO":999,"REV_AT_EPOCH":2604,"BSTAR":0.00095605845,"MEAN_MOTION_DOT":0.00028065,"MEAN_MOTION_DDOT":0}]
